OBJECT_NAME,OBJECT_ID,EPOCH,MEAN_MOTION,ECCENTRICITY,INCLINATION,RA_OF_ASC_NODE,ARG_OF_PERICENTER,MEAN_ANOMALY,EPHEMERIS_TYPE,CLASSIFICATION_TYPE,NORAD_CAT_ID,ELEMENT_SET_NO,REV_AT_EPOCH,BSTAR,MEAN_MOTION_DOT,MEAN_MOTION_DDOT
GOES 17,2018-022A,2026-07-17T02:35:01.780800,1.00270902,.0000589,1.0120,85.2284,73.7844,85.1750,0,U,43226,999,3072,0,-.193E-5,0
HISPASAT 30W-6,2018-023A,2026-07-17T04:14:38.550048,1.00270047,.0005128,0.0417,50.1955,43.2966,235.1807,0,U,43228,999,3070,0,-.226E-5,0
SUPERBIRD-B3,2018-033A,2026-07-17T03:25:38.594784,1.00270956,.00011,0.0190,44.2922,84.4320,19.6503,0,U,43271,999,3036,0,-.103E-5,0
HYLAS 4,2018-033B,2026-07-17T04:22:38.750880,1.00270437,.0000689,0.0263,284.4646,221.6289,181.0719,0,U,43272,999,3036,0,-.244E-5,0
IRNSS-1I,2018-035A,2026-07-16T17:59:38.660064,1.00272376,.0018409,28.8220,73.7347,178.6594,7.1470,0,U,43286,999,3037,0,.6E-6,0
USA 283,2018-036A,2026-07-15T13:17:38.420160,1.00269348,.0000851,0.0219,73.5495,143.9027,49.4517,0,U,43339,999,2557,0,0,0
COSMOS 2526,2018-037A,2026-07-15T00:17:30.350976,1.00268298,.00008216,0.0358,106.6288,157.1060,161.5486,0,U,43432,999,3023,0,-.354E-5,0
APSTAR-6C,2018-041A,2026-07-16T17:58:59.570112,1.00270102,.0000425,0.0547,291.7441,318.7981,87.7695,0,U,43450,999,3010,0,-.329E-5,0
BANGABANDHUSAT-1,2018-044A,2026-07-17T02:47:26.783808,1.00272861,.0001743,0.0278,95.8148,21.0284,339.0418,0,U,43463,999,3001,0,-.373E-5,0
SES-12,2018-049A,2026-07-17T01:44:58.725024,1.00271481,.0000767,0.0103,17.8890,246.1428,152.0997,0,U,43488,999,2971,0,-.28E-5,0
FENGYUN 2H,2018-050A,2026-07-17T03:48:38.628288,1.00266940,.0002287,3.1065,78.7191,134.5374,217.9840,0,U,43491,999,2973,0,-.138E-5,0
BEIDOU-2 IGSO-7,2018-057A,2026-07-01T21:23:21.693984,1.00246939,.01049468,55.1981,162.9292,237.8611,308.6338,0,U,43539,999,2927,0,-.33E-6,0
TELSTAR 19V,2018-059A,2026-07-17T02:26:34.965312,1.00269298,.000294,0.0268,139.7067,351.3459,137.5031,0,U,43562,999,2944,0,-.29E-5,0
TELKOM 4 (MERAH PUTIH),2018-064A,2026-07-17T01:48:35.876736,1.00270573,.0001177,0.0157,63.8964,51.7199,314.4313,0,U,43587,999,2917,0,0,0
TELSTAR 18V,2018-069A,2026-07-17T03:41:38.948064,1.00270989,.0001823,0.0294,280.3272,197.5287,10.5345,0,U,43611,999,2894,0,-.304E-5,0
AZERSPACE 2 (IS-38),2018-074A,2026-07-17T03:13:24.944736,1.00270363,.0001409,0.0222,56.7505,60.0662,271.6166,0,U,43632,999,2874,0,0,0
HORIZONS-3E,2018-074B,2026-07-17T03:48:44.060256,1.00273107,.0000924,0.0266,227.0013,60.5153,233.6328,0,U,43633,999,2864,0,-.41E-6,0
AEHF-4 (USA 288),2018-079A,2026-07-17T02:21:33.899328,1.00274608,.0059199,1.4370,5.7147,354.5444,262.5175,0,U,43651,999,2859,0,-.285E-5,0
BEIDOU-3 G1,2018-085A,2026-07-16T22:38:10.036608,1.00272430,.0007988,2.9416,96.5647,356.7345,340.9786,0,U,43683,999,2835,0,-.121E-5,0
GSAT-29,2018-089A,2026-07-17T04:39:38.703744,1.00267943,.0003089,0.0301,242.0401,216.4726,321.4962,0,U,43698,999,2808,0,.75E-6,0
ES'HAIL 2,2018-090A,2026-07-17T03:07:47.983008,1.00272026,.0002296,0.0135,64.9431,93.9394,208.7946,0,U,43700,999,2797,0,.134E-5,0
GEO-KOMPSAT-2A,2018-100A,2026-07-17T02:39:38.837088,1.00272913,.0002221,0.0326,169.3080,286.1070,7.6727,0,U,43823,999,2793,0,-.354E-5,0
GSAT-11,2018-100B,2026-07-17T01:38:59.299296,1.00271289,.0007734,0.0467,246.0575,212.0252,295.5550,0,U,43824,999,2777,0,-.87E-6,0
GSAT-7A,2018-105A,2026-07-17T04:39:38.703744,1.00271767,.0001742,0.0898,91.2633,20.3658,316.0392,0,U,43864,999,2774,0,.17E-6,0
COSMOS 2533,2018-107A,2026-07-17T01:37:51.905568,1.00270031,.0000689,0.0382,114.5556,130.7987,143.9945,0,U,43867,999,2774,0,-.48E-6,0
TJS-3,2018-110A,2026-07-16T16:55:11.484192,1.00271583,.0002578,2.6190,80.1355,88.1868,168.2304,0,U,43874,999,2771,0,-.228E-5,0
ZHONGXING-2D,2019-001A,2026-07-16T12:13:38.575200,1.00269306,.000036,0.0177,252.5695,52.4477,302.7286,0,U,43920,999,5437,0,0,0
HELLAS-SAT 4 & SGS-1,2019-007A,2026-07-17T03:11:40.113024,1.00272066,.0005719,0.0682,124.1148,23.8653,233.8930,0,U,44034,999,2766,0,.142E-5,0
GSAT-31,2019-007B,2026-07-17T03:14:09.872736,1.00271890,.0000793,0.0196,99.9375,125.8121,165.6121,0,U,44035,999,2726,0,.115E-5,0
NUSANTARA SATU,2019-009A,2026-07-17T03:33:38.540736,1.00270398,.000461,0.0315,118.3529,11.0613,4.9664,0,U,44048,999,2707,0,-.245E-5,0
ZHONGXING-6C,2019-012A,2026-07-17T00:12:26.890848,1.00273850,.0014853,0.0502,61.4746,352.6872,14.2107,0,U,44067,999,2703,0,-.345E-5,0
WGS 10 (USA 291),2019-014A,2026-07-17T04:39:38.703744,1.00271803,.0000115,0.0148,64.5861,214.5949,146.0340,0,U,44071,999,2691,0,.37E-6,0
TIANLIAN 2-01,2019-017A,2026-07-17T01:39:51.713856,1.00270971,.0001532,0.6152,83.0523,78.4175,235.3981,0,U,44076,999,2694,0,-.117E-5,0
ARABSAT-6A,2019-021A,2026-07-17T03:09:10.350720,1.00274198,.0001914,0.0455,13.7356,247.6429,111.3697,0,U,44186,999,2645,0,.143E-5,0
BEIDOU-3 IGSO-1,2019-023A,2026-07-16T07:41:18.119904,1.00282972,.0025911,58.7368,37.3490,224.0979,267.2123,0,U,44204,999,750,0,-.209E-5,0
BEIDOU-2 G8,2019-027A,2026-07-17T05:24:24.221376,1.00271073,.000968,1.7323,74.4980,282.0048,164.1667,0,U,44231,999,2638,0,-.258E-5,0
YAMAL 601,2019-031A,2026-07-17T04:57:04.341600,1.00272506,.0002359,0.0159,68.7128,41.8706,307.7084,0,U,44307,999,2622,0,.11E-5,0
AT&T T-16,2019-034A,2026-07-16T23:06:22.330944,1.00272918,.0000711,0.0156,72.9858,264.8400,202.6904,0,U,44333,999,2593,0,-.126E-5,0
EUTELSAT 7C,2019-034B,2026-07-17T02:29:38.592096,1.00272269,.0003367,0.0774,182.1592,282.5760,234.6133,0,U,44334,999,713,0,.38E-6,0
BEIDOU-3 IGSO-2,2019-035A,2026-07-16T20:54:27.321984,1.00257198,.0039372,55.2505,158.6014,216.5217,351.6077,0,U,44337,999,2596,0,-.135E-5,0
COSMOS 2539,2019-048A,2026-07-14T23:05:19.317696,1.00271598,.0000812,0.0358,102.1610,356.5248,192.4498,0,U,44457,999,2550,0,.72E-6,0
EDRS-C,2019-049A,2026-07-17T03:33:38.540736,1.00271096,.000096,0.0154,113.0855,11.0127,6.7763,0,U,44475,999,2551,0,-.272E-5,0
INTELSAT 39 (IS-39),2019-049B,2026-07-17T01:35:29.634144,1.00269158,.0000936,0.0198,53.9430,293.4619,33.3157,0,U,44476,999,2542,0,0,0
AMOS-17,2019-050A,2026-07-17T03:05:18.223296,1.00274470,.0001529,0.0197,347.5233,140.7106,230.0529,0,U,44479,999,2548,0,.99E-6,0
AEHF-5 (USA 292),2019-051A,2026-07-17T01:44:36.261024,1.00273353,.0064919,1.4295,338.5753,357.4850,78.0569,0,U,44481,999,2556,0,-.267E-5,0
EUTELSAT 5 WEST B,2019-067A,2026-07-17T02:37:38.538048,1.00272363,.00031,0.0815,317.8776,157.7697,213.6885,0,U,44624,999,2473,0,-.52E-6,0
TJS-4,2019-070A,2026-07-17T03:24:16.405056,1.00273796,.0000357,0.1051,260.4197,42.3568,126.8073,0,U,44637,999,2483,0,-.181E-5,0
TIBA-1,2019-080A,2026-07-17T03:10:40.209312,1.00272022,.0001976,0.0543,21.0779,106.0543,250.9572,0,U,44800,999,2435,0,.146E-5,0
INMARSAT GX5,2019-080B,2026-07-17T02:29:38.592096,1.00269355,.0002072,0.0349,7.0683,118.6878,217.6008,0,U,44801,999,708,0,.64E-6,0
JCSAT-18 (KACIFIC 1),2019-091A,2026-07-16T19:10:04.140192,1.00272553,.0000426,0.0476,235.9756,341.1765,154.9646,0,U,44868,999,2430,0,-.211E-5,0
ELEKTRO-L 3,2019-095A,2026-07-17T01:51:38.672352,1.00271059,.0001135,0.3320,82.1404,20.6078,296.0440,0,U,44903,999,2400,0,-.107E-5,0
SHIJIAN-20 (SJ-20),2019-097A,2026-07-16T20:22:42.094848,1.00270033,.001541,4.9925,74.6989,57.6015,152.8232,0,U,44910,999,2399,0,.123E-5,0
TJS-5,2020-002A,2026-07-17T00:27:04.980960,1.00269959,.000774,0.0691,76.4035,338.7912,353.9098,0,U,44978,999,2400,0,-.352E-5,0
GSAT-30,2020-005A,2026-07-17T01:41:29.059008,1.00272779,.0003155,0.0416,241.4121,207.6993,314.1431,0,U,45026,999,2380,0,-.175E-5,0
EUTELSAT KONNECT,2020-005B,2026-07-17T02:29:38.592096,1.00274676,.0001937,0.0674,94.6464,134.4181,110.4772,0,U,45027,999,2463,0,.4E-6,0
JCSAT-17,2020-013A,2026-07-16T20:48:39.606048,1.00271815,.0003128,5.3923,357.1517,127.5933,258.1254,0,U,45245,999,2353,0,-.324E-5,0
GEO-KOMPSAT-2B,2020-013B,2026-07-16T20:46:32.311200,1.00270329,.0000324,0.0191,242.4049,327.1066,165.0675,0,U,45246,999,2357,0,0,0
BEIDOU-3 G2,2020-017A,2026-07-16T18:19:46.126848,1.00269158,.0002098,2.9229,47.8283,61.0937,180.6172,0,U,45344,999,2355,0,-.151E-5,0
AEHF-6 (USA 298),2020-022B,2026-07-17T03:41:38.948064,1.00270672,.004199,2.4838,301.5462,15.4270,171.1757,0,U,45465,999,2331,0,-.307E-5,0
BEIDOU-3 G3,2020-040A,2026-07-17T01:49:20.805600,1.00275533,.0002217,2.5190,67.4851,307.7986,57.4416,0,U,45807,999,2237,0,-.365E-5,0
APSTAR-6D,2020-045A,2026-07-17T00:13:26.795424,1.00286584,.0002014,0.0424,89.9002,11.5301,330.7755,0,U,45863,999,2215,0,-.326E-5,0
KOREASAT 116,2020-048A,2026-07-17T01:50:58.149024,1.00267574,.0001012,0.0217,306.7735,198.8308,293.1846,0,U,45920,999,2193,0,-.372E-5,0
EXPRESS 103,2020-053A,2026-07-17T03:27:53.557632,1.00271260,.0000583,0.0299,271.3231,184.9602,347.1492,0,U,45985,999,2194,0,-.29E-5,0
EXPRESS 80,2020-053B,2026-07-16T23:00:49.742784,1.00276846,.0001653,0.0172,31.6048,196.4103,131.9709,0,U,45986,999,2192,0,0,0
BSAT-4B,2020-056A,2026-07-17T02:47:38.783904,1.00271300,.0004337,0.0409,143.2261,345.7803,317.6653,0,U,46112,999,2168,0,-.36E-5,0
MEV-2,2020-056B,2026-07-17T03:00:03.725568,1.00271862,.000026,0.0571,255.6497,338.7429,104.5661,0,U,46113,999,8101,0,-.21E-6,0
GALAXY 30 (G-30),2020-056C,2026-07-17T02:24:55.251072,1.00270761,.0002211,0.0219,58.4095,59.8090,87.9453,0,U,46114,999,2159,0,0,0
GAOFEN-13 01,2020-071A,2026-07-16T19:01:05.000736,1.00264895,.0045212,0.4727,86.1044,120.5945,131.3354,0,U,46610,999,2121,0,-.373E-5,0
TIANTONG-1 2,2020-082A,2026-07-16T17:20:14.066592,1.00272904,.0001229,0.7564,331.9629,127.7602,219.8208,0,U,46916,999,2094,0,-.366E-5,0
LUCAS (JDRS-1),2020-089A,2026-07-17T01:43:43.843008,1.00269784,.0001642,0.0704,268.3956,179.8744,323.3484,0,U,47202,999,2071,0,-.245E-5,0
SXM-7,2020-096A,2026-07-17T01:59:33.249408,1.00270475,.0003529,0.0265,97.3014,21.4795,120.8509,0,U,47240,999,774,0,-.215E-5,0
CMS-01,2020-099A,2026-07-17T01:41:29.059008,1.00270752,.0003416,0.0797,90.7958,175.3389,137.1139,0,U,47256,999,2049,0,-.175E-5,0
TURKSAT 5A,2021-001A,2026-07-17T02:13:38.701056,1.00272252,.0000102,0.0145,70.0373,247.4733,41.7305,0,U,47306,999,2026,0,.144E-5,0
